[{"OBJECT_NAME":"STARLINK-5504","OBJECT_ID":"2023-094AW","EPOCH":"2026-03-09T21:47:24.707904","MEAN_MOTION":15.02707655,"ECCENTRICITY":0.00033243,"INCLINATION":43.0064,"RA_OF_ASC_NODE":16.061,"ARG_OF_PERICENTER":38.7007,"MEAN_ANOMALY":321.4073,"EPHEMERIS_TYPE":0,"CLASSIFICATION_TYPE":"U","NORAD_CAT_ID":57262,"ELEMENT_SET_NO":999,"REV_AT_EPOCH":14730,"BSTAR":0.0015648081,"MEAN_MOTION_DOT":0.00021096,"MEAN_MOTION_DDOT":0},{"OBJECT_NAME":"COSMOS 375","OBJECT_ID":"1970-091A","EPOCH":"2026-03-09T16:41:37.064832","MEAN_MOTION":12.97415752,"ECCENTRICITY":0.09512894,"INCLINATION":62.8181,"RA_OF_ASC_NODE":201.7511,"ARG_OF_PERICENTER":174.0663,"MEAN_ANOMALY":187.2629,"EPHEMERIS_TYPE":0,"CLASSIFICATION_TYPE":"U","NORAD_CAT_ID":4598,"ELEMENT_SET_NO":999,"REV_AT_EPOCH":61567,"BSTAR":0.00022968696,"MEAN_MOTION_DOT":5.02e-6,"MEAN_MOTION_DDOT":0}]
